{
  "type": "FeatureCollection",
  "features": [
    {
      "type": "Feature",
      "properties": {
        "norad_id": 37867,
        "name": "COSMOS 2476 (744)",
        "group": "glo-ops",
        "lat": 44.673911312335186,
        "lon": -128.06803893690815,
        "alt_km": 19139.818704137386,
        "timestamp": "2025-12-13T18:50:04.691524+00:00",
        "meta_object_name": "COSMOS 2476 (744)",
        "meta_object_id": "2011-064A",
        "meta_epoch": "2025-12-10T19:30:14.482368",
        "meta_mean_motion": 2.13101258,
        "meta_eccentricity": 0.00238922,
        "meta_inclination": 65.1614,
        "meta_ra_of_asc_node": 79.2364,
        "meta_arg_of_pericenter": 233.6597,
        "meta_mean_anomaly": 135.7131,
        "meta_ephemeris_type": 0,
        "meta_classification_type": "U",
        "meta_norad_cat_id": 37867,
        "meta_element_set_no": 999,
        "meta_rev_at_epoch": 10975,
        "meta_bstar": 0,
        "meta_mean_motion_dot": -2.4e-07,
        "meta_mean_motion_ddot": 0,
        "tle_line1": "1 37867U 11064A   25344.81266762 -.00000024  00000+0  00000+0 0  9994",
        "tle_line2": "2 37867  65.1614  79.2364 0023892 233.6597 135.7131  2.13101258109752"
      },
      "geometry": {
        "type": "Point",
        "coordinates": [
          -128.06803893690815,
          44.673911312335186
        ]
      }
    },
    {
      "type": "Feature",
      "properties": {
        "norad_id": 37868,
        "name": "COSMOS 2477 (745)",
        "group": "glo-ops",
        "lat": -43.541446659159135,
        "lon": 53.154676175989486,
        "alt_km": 19122.074416349406,
        "timestamp": "2025-12-13T18:50:04.691546+00:00",
        "meta_object_name": "COSMOS 2477 (745)",
        "meta_object_id": "2011-064B",
        "meta_epoch": "2025-12-12T21:57:38.702592",
        "meta_mean_motion": 2.13102761,
        "meta_eccentricity": 0.00211332,
        "meta_inclination": 65.1692,
        "meta_ra_of_asc_node": 79.2429,
        "meta_arg_of_pericenter": 234.633,
        "meta_mean_anomaly": 128.5252,
        "meta_ephemeris_type": 0,
        "meta_classification_type": "U",
        "meta_norad_cat_id": 37868,
        "meta_element_set_no": 999,
        "meta_rev_at_epoch": 10979,
        "meta_bstar": 0,
        "meta_mean_motion_dot": -4.4e-07,
        "meta_mean_motion_ddot": 0,
        "tle_line1": "1 37868U 11064B   25346.91503128 -.00000044  00000+0  00000+0 0  9990",
        "tle_line2": "2 37868  65.1692  79.2429 0021133 234.6330 128.5252  2.13102761109791"
      },
      "geometry": {
        "type": "Point",
        "coordinates": [
          53.154676175989486,
          -43.541446659159135
        ]
      }
    },
    {
      "type": "Feature",
      "properties": {
        "norad_id": 37869,
        "name": "COSMOS 2475 (743)",
        "group": "glo-ops",
        "lat": -64.95819203230668,
        "lon": -19.174644195422932,
        "alt_km": 19073.389689882773,
        "timestamp": "2025-12-13T18:50:04.691560+00:00",
        "meta_object_name": "COSMOS 2475 (743)",
        "meta_object_id": "2011-064C",
        "meta_epoch": "2025-12-09T06:02:05.700768",
        "meta_mean_motion": 2.13101306,
        "meta_eccentricity": 0.0026081,
        "meta_inclination": 65.1742,
        "meta_ra_of_asc_node": 79.3871,
        "meta_arg_of_pericenter": 248.2695,
        "meta_mean_anomaly": 140.2782,
        "meta_ephemeris_type": 0,
        "meta_classification_type": "U",
        "meta_norad_cat_id": 37869,
        "meta_element_set_no": 999,
        "meta_rev_at_epoch": 10972,
        "meta_bstar": 0,
        "meta_mean_motion_dot": -1.3e-07,
        "meta_mean_motion_ddot": 0,
        "tle_line1": "1 37869U 11064C   25343.25145487 -.00000013  00000+0  00000+0 0  9991",
        "tle_line2": "2 37869  65.1742  79.3871 0026081 248.2695 140.2782  2.13101306109728"
      },
      "geometry": {
        "type": "Point",
        "coordinates": [
          -19.174644195422932,
          -64.95819203230668
        ]
      }
    },
    {
      "type": "Feature",
      "properties": {
        "norad_id": 39155,
        "name": "COSMOS 2485 (747)",
        "group": "glo-ops",
        "lat": 2.1645028781605355,
        "lon": -101.15856619423126,
        "alt_km": 19091.10477570224,
        "timestamp": "2025-12-13T18:50:04.691572+00:00",
        "meta_object_name": "COSMOS 2485 (747)",
        "meta_object_id": "2013-019A",
        "meta_epoch": "2025-12-11T16:13:03.281952",
        "meta_mean_motion": 2.13102869,
        "meta_eccentricity": 0.00245837,
        "meta_inclination": 65.313,
        "meta_ra_of_asc_node": 79.9029,
        "meta_arg_of_pericenter": 229.3313,
        "meta_mean_anomaly": 130.4708,
        "meta_ephemeris_type": 0,
        "meta_classification_type": "U",
        "meta_norad_cat_id": 39155,
        "meta_element_set_no": 999,
        "meta_rev_at_epoch": 9828,
        "meta_bstar": 0,
        "meta_mean_motion_dot": -3.1e-07,
        "meta_mean_motion_ddot": 0,
        "tle_line1": "1 39155U 13019A   25345.67573243 -.00000031  00000+0  00000+0 0  9996",
        "tle_line2": "2 39155  65.3130  79.9029 0024583 229.3313 130.4708  2.13102869 98286"
      },
      "geometry": {
        "type": "Point",
        "coordinates": [
          -101.15856619423126,
          2.1645028781605355
        ]
      }
    },
    {
      "type": "Feature",
      "properties": {
        "norad_id": 39620,
        "name": "COSMOS 2492 (754)",
        "group": "glo-ops",
        "lat": -26.61221905941557,
        "lon": 153.4879805710199,
        "alt_km": 19141.06349788226,
        "timestamp": "2025-12-13T18:50:04.691584+00:00",
        "meta_object_name": "COSMOS 2492 (754)",
        "meta_object_id": "2014-012A",
        "meta_epoch": "2025-12-12T02:29:11.116896",
        "meta_mean_motion": 2.1310296,
        "meta_eccentricity": 0.00141989,
        "meta_inclination": 65.408,
        "meta_ra_of_asc_node": 320.2923,
        "meta_arg_of_pericenter": 311.6032,
        "meta_mean_anomaly": 48.2746,
        "meta_ephemeris_type": 0,
        "meta_classification_type": "U",
        "meta_norad_cat_id": 39620,
        "meta_element_set_no": 999,
        "meta_rev_at_epoch": 9125,
        "meta_bstar": 0,
        "meta_mean_motion_dot": -5.5e-07,
        "meta_mean_motion_ddot": 0,
        "tle_line1": "1 39620U 14012A   25346.10360089 -.00000055  00000+0  00000+0 0  9994",
        "tle_line2": "2 39620  65.4080 320.2923 0014198 311.6032  48.2746  2.13102960 91257"
      },
      "geometry": {
        "type": "Point",
        "coordinates": [
          153.4879805710199,
          -26.61221905941557
        ]
      }
    },
    {
      "type": "Feature",
      "properties": {
        "norad_id": 40001,
        "name": "COSMOS 2500 (755)",
        "group": "glo-ops",
        "lat": 62.54488087991782,
        "lon": 22.105157387679597,
        "alt_km": 19139.24008579082,
        "timestamp": "2025-12-13T18:50:04.691596+00:00",
        "meta_object_name": "COSMOS 2500 (755)",
        "meta_object_id": "2014-032A",
        "meta_epoch": "2025-12-12T17:52:53.552928",
        "meta_mean_motion": 2.13105799,
        "meta_eccentricity": 0.00082294,
        "meta_inclination": 65.343,
        "meta_ra_of_asc_node": 320.0321,
        "meta_arg_of_pericenter": 219.0153,
        "meta_mean_anomaly": 140.9247,
        "meta_ephemeris_type": 0,
        "meta_classification_type": "U",
        "meta_norad_cat_id": 40001,
        "meta_element_set_no": 999,
        "meta_rev_at_epoch": 8948,
        "meta_bstar": 0,
        "meta_mean_motion_dot": -5.8e-07,
        "meta_mean_motion_ddot": 0,
        "tle_line1": "1 40001U 14032A   25346.74506427 -.00000058  00000+0  00000+0 0  9992",
        "tle_line2": "2 40001  65.3430 320.0321 0008229 219.0153 140.9247  2.13105799 89484"
      },
      "geometry": {
        "type": "Point",
        "coordinates": [
          22.105157387679597,
          62.54488087991782
        ]
      }
    },
    {
      "type": "Feature",
      "properties": {
        "norad_id": 40315,
        "name": "COSMOS 2501 (702K)",
        "group": "glo-ops",
        "lat": -49.75476788736709,
        "lon": 52.6996727753768,
        "alt_km": 19092.694791732596,
        "timestamp": "2025-12-13T18:50:04.691607+00:00",
        "meta_object_name": "COSMOS 2501 (702K)",
        "meta_object_id": "2014-075A",
        "meta_epoch": "2025-12-12T01:35:26.425248",
        "meta_mean_motion": 2.13101306,
        "meta_eccentricity": 0.0020213,
        "meta_inclination": 63.6138,
        "meta_ra_of_asc_node": 196.8484,
        "meta_arg_of_pericenter": 204.6963,
        "meta_mean_anomaly": 155.2753,
        "meta_ephemeris_type": 0,
        "meta_classification_type": "U",
        "meta_norad_cat_id": 40315,
        "meta_element_set_no": 999,
        "meta_rev_at_epoch": 8586,
        "meta_bstar": 0,
        "meta_mean_motion_dot": 6.5e-07,
        "meta_mean_motion_ddot": 0,
        "tle_line1": "1 40315U 14075A   25346.06627807  .00000065  00000+0  00000+0 0  9995",
        "tle_line2": "2 40315  63.6138 196.8484 0020213 204.6963 155.2753  2.13101306 85862"
      },
      "geometry": {
        "type": "Point",
        "coordinates": [
          52.6996727753768,
          -49.75476788736709
        ]
      }
    }
  ]
}